{
    "links": {
        "self": "http://www.neowsapp.com/rest/v1/neo/3442526?api_key=iIulBulltgU6a56xZRHN4H3l9WmuAYTsLGpBGhQ2"
    },
    "id": "3442526",
    "neo_reference_id": "3442526",
    "name": "(2008 YO27)",
    "designation": "2008 YO27",
    "nasa_jpl_url": "http://ssd.jpl.nasa.gov/sbdb.cgi?sstr=3442526",
    "absolute_magnitude_h": 20.9,
    "estimated_diameter": {
        "kilometers": {
            "estimated_diameter_min": 0.1756123185,
            "estimated_diameter_max": 0.3926810818
        },
        "meters": {
            "estimated_diameter_min": 175.6123184804,
            "estimated_diameter_max": 392.6810818086
        },
        "miles": {
            "estimated_diameter_min": 0.1091204019,
            "estimated_diameter_max": 0.2440006365
        },
        "feet": {
            "estimated_diameter_min": 576.1559189633,
            "estimated_diameter_max": 1288.3238004408
        }
    },
    "is_potentially_hazardous_asteroid": false,
    "close_approach_data": [
        {
            "close_approach_date": "2006-12-31",
            "close_approach_date_full": "2006-Dec-31 11:04",
            "epoch_date_close_approach": 1167563040000,
            "relative_velocity": {
                "kilometers_per_second": "24.3521469049",
                "kilometers_per_hour": "87667.7288575151",
                "miles_per_hour": "54473.3174114932"
            },
            "miss_distance": {
                "astronomical": "0.4330225651",
                "lunar": "168.4457778239",
                "kilometers": "64779253.400896337",
                "miles": "40251961.5550579706"
            },
            "orbiting_body": "Earth"
        },
        {
            "close_approach_date": "2008-12-27",
            "close_approach_date_full": "2008-Dec-27 15:55",
            "epoch_date_close_approach": 1230393300000,
            "relative_velocity": {
                "kilometers_per_second": "21.4231356246",
                "kilometers_per_hour": "77123.2882485499",
                "miles_per_hour": "47921.4120786615"
            },
            "miss_distance": {
                "astronomical": "0.2727813117",
                "lunar": "106.1119302513",
                "kilometers": "40807503.206126079",
                "miles": "25356606.6908107302"
            },
            "orbiting_body": "Earth"
        },
        {
            "close_approach_date": "2010-12-27",
            "close_approach_date_full": "2010-Dec-27 21:17",
            "epoch_date_close_approach": 1293484620000,
            "relative_velocity": {
                "kilometers_per_second": "20.6739301085",
                "kilometers_per_hour": "74426.1483906997",
                "miles_per_hour": "46245.5142597656"
            },
            "miss_distance": {
                "astronomical": "0.4159803172",
                "lunar": "161.8163433908",
                "kilometers": "62229769.415044364",
                "miles": "38667785.6654616632"
            },
            "orbiting_body": "Earth"
        }
    ],
    "orbital_data": {
        "orbit_id": "11",
        "orbit_determination_date": "2017-04-06 09:01:49",
        "first_observation_date": "2008-12-29",
        "last_observation_date": "2009-01-14",
        "data_arc_in_days": 16,
        "observations_used": 30,
        "orbit_uncertainty": "8",
        "minimum_orbit_intersection": ".272658",
        "jupiter_tisserand_invariant": "4.138",
        "epoch_osculation": "2454832.5",
        "eccentricity": ".2546960859470083",
        "semi_major_axis": "1.556302487149706",
        "inclination": "41.32228718110106",
        "ascending_node_longitude": "100.5361186565023",
        "orbital_period": "709.1521829918941",
        "perihelion_distance": "1.159918335123082",
        "perihelion_argument": "305.5059286244409",
        "aphelion_distance": "1.952686639176331",
        "perihelion_time": "2454770.830396879078",
        "mean_anomaly": "31.30647787032997",
        "mean_motion": ".5076484408200926",
        "equinox": "J2000",
        "orbit_class": {
            "orbit_class_type": "AMO",
            "orbit_class_description": "Near-Earth asteroid orbits similar to that of 1221 Amor",
            "orbit_class_range": "1.017 AU < q (perihelion) < 1.3 AU"
        }
    },
    "is_sentry_object": false
}